NORAD_CAT_ID,OBJECT_NAME,OBJECT_TYPE,EPOCH,MEAN_MOTION,ECCENTRICITY,INCLINATION,RA_OF_ASC_NODE,ARG_OF_PERICENTER,MEAN_ANOMALY,BSTAR,MEAN_MOTION_DOT,MEAN_MOTION_DDOT,TLE_LINE0,TLE_LINE1,TLE_LINE2,SEMIMAJOR_AXIS,PERIOD,APOGEE,PERIGEE,DECAYED
49443.0,STARLINK-3136,PAYLOAD,2024-05-04 22:30:58,15.08845716,0.0001269,53.2171,353.7106,80.351,279.7626,0.00094966,0.0001486,0.0,0 STARLINK-3136,1 49443U 21104AM  24125.93817346  .00014860  00000-0  94966-3 0  9993,2 49443  53.2171 353.7106 0001269  80.3510 279.7626 15.08845716137202,6917.863,95.437,540.606,538.85,0.0
49443.0,STARLINK-3136,PAYLOAD,2024-05-05 22:21:44,15.08868955,0.0001194,53.2164,349.2504,82.5161,277.5967,0.00093341,0.0001461,0.0,0 STARLINK-3136,1 49443U 21104AM  24126.93176329  .00014610  00000-0  93341-3 0  9992,2 49443  53.2164 349.2504 0001194  82.5161 277.5967 15.08868955137359,6917.792,95.436,540.483,538.831,0.0
49443.0,STARLINK-3136,PAYLOAD,2024-05-05 23:57:07,15.08873503,0.0001185,53.2164,348.9532,83.935,276.1778,0.0010674,0.00016756,0.0,0 STARLINK-3136,1 49443U 21104AM  24126.99800158  .00016756  00000-0  10674-2 0  9992,2 49443  53.2164 348.9532 0001185  83.9350 276.1778 15.08873503138431,6917.778,95.435,540.463,538.823,0.0
49443.0,STARLINK-3136,PAYLOAD,2024-05-06 20:37:07,15.08855216,0.000149,53.2168,345.0864,103.6066,256.5092,0.0002164,3.159e-05,0.0,0 STARLINK-3136,1 49443U 21104AM  24127.85911637  .00003159  00000-0  21640-3 0  9992,2 49443  53.2168 345.0864 0001490 103.6066 256.5092 15.08855216138560,6917.834,95.437,540.73,538.668,0.0
49443.0,STARLINK-3136,PAYLOAD,2024-05-06 22:12:30,15.08861789,0.0001294,53.2164,344.7907,92.7765,267.3376,0.00041466,6.321e-05,0.0,0 STARLINK-3136,1 49443U 21104AM  24127.92535578  .00006321  00000-0  41466-3 0  9998,2 49443  53.2164 344.7907 0001294  92.7765 267.3376 15.08861789137506,6917.814,95.436,540.574,538.784,0.0
49443.0,STARLINK-3136,PAYLOAD,2024-05-07 07:44:49,15.08841719,0.0001622,53.2162,343.0065,75.81,284.3072,0.00031511,4.731e-05,0.0,0 STARLINK-3136,1 49443U 21104AM  24128.32279817  .00004731  00000-0  31511-3 0  9997,2 49443  53.2162 343.0065 0001622  75.8100 284.3072 15.08841719138639,6917.875,95.437,540.862,538.618,0.0
49443.0,STARLINK-3136,PAYLOAD,2024-05-07 14:06:22,15.0883323,0.0002124,53.2167,341.816,77.2535,282.8695,0.00032127,4.828e-05,0.0,0 STARLINK-3136,1 49443U 21104AM  24128.58776339  .00004828  00000-0  32127-3 0  9997,2 49443  53.2167 341.8160 0002124  77.2535 282.8695 15.08833230137601,6917.901,95.438,541.235,538.297,0.0
49443.0,STARLINK-3136,PAYLOAD,2024-05-07 20:27:55,15.08825006,0.0001504,53.217,340.6259,82.2269,277.8893,0.00010515,1.385e-05,0.0,0 STARLINK-3136,1 49443U 21104AM  24128.85272701  .00001385  00000-0  10515-3 0  9993,2 49443  53.2170 340.6259 0001504  82.2269 277.8893 15.08825006138711,6917.926,95.439,540.832,538.751,0.0
49443.0,STARLINK-3136,PAYLOAD,2024-05-08 07:35:37,15.08836382,0.0001396,53.2168,338.5444,76.3853,283.7294,0.00055632,8.576e-05,0.0,0 STARLINK-3136,1 49443U 21104AM  24129.31640891  .00008576  00000-0  55632-3 0  9992,2 49443  53.2168 338.5444 0001396  76.3853 283.7294 15.08836382138789,6917.891,95.438,540.722,538.791,0.0
49443.0,STARLINK-3136,PAYLOAD,2024-05-08 20:18:42,15.08851588,0.0001305,53.2169,336.1644,82.8322,277.2819,0.0008001,0.00012473,0.0,0 STARLINK-3136,1 49443U 21104AM  24129.84632665  .00012473  00000-0  80010-3 0  9999,2 49443  53.2169 336.1644 0001305  82.8322 277.2819 15.08851588137795,6917.845,95.437,540.613,538.807,0.0
49443.0,STARLINK-3136,PAYLOAD,2024-05-08 23:29:28,15.0885586,0.0001351,53.2171,335.5691,83.5624,276.5522,0.00085662,0.00013377,0.0,0 STARLINK-3136,1 49443U 21104AM  24129.97880528  .00013377  00000-0  85662-3 0  9998,2 49443  53.2171 335.5691 0001351  83.5624 276.5522 15.08855860138888,6917.832,95.437,540.632,538.762,0.0
49443.0,STARLINK-3136,PAYLOAD,2024-05-09 20:09:29,15.08848678,0.0001189,53.2173,331.699,90.4378,269.675,0.00039854,6.062e-05,0.0,0 STARLINK-3136,1 49443U 21104AM  24130.83992403  .00006062  00000-0  39854-3 0  9996,2 49443  53.2173 331.6990 0001189  90.4378 269.6750 15.08848678139012,6917.854,95.437,540.541,538.896,0.0
49443.0,STARLINK-3136,PAYLOAD,2024-05-10 13:38:44,15.0884195,0.0001308,53.2175,328.4319,118.8618,241.2506,7.0763e-05,8.39e-06,0.0,0 STARLINK-3136,1 49443U 21104AM  24131.56856547  .00000839  00000-0  70763-4 0  9996,2 49443  53.2175 328.4319 0001308 118.8618 241.2506 15.08841950139121,6917.874,95.437,540.644,538.835,0.0
49443.0,STARLINK-3136,PAYLOAD,2024-05-10 20:00:16,15.08854236,0.0001077,53.2164,327.2429,90.9119,269.1996,0.00046167,7.07e-05,0.0,0 STARLINK-3136,1 49443U 21104AM  24131.83352277  .00007070  00000-0  46167-3 0  9991,2 49443  53.2164 327.2429 0001077  90.9119 269.1996 15.08854236138095,6917.837,95.437,540.447,538.957,0.0
49443.0,STARLINK-3136,PAYLOAD,2024-05-11 13:29:29,15.08900853,9.92e-05,53.2162,323.9726,102.9046,257.2057,0.0014155,0.00022349,0.0,0 STARLINK-3136,1 49443U 21104AM  24132.56214344  .00022349  00000-0  14155-2 0  9991,2 49443  53.2162 323.9726 0000992 102.9046 257.2057 15.08900853139278,6917.694,95.434,540.246,538.873,0.0
49443.0,STARLINK-3136,PAYLOAD,2024-05-11 21:26:26,15.0879094,0.000161,53.2166,322.486,77.6418,282.4755,-0.0015845,-0.00025383,0.0,0 STARLINK-3136,1 49443U 21104AM  24132.89336026 -.00025383  00000-0 -15845-2 0  9999,2 49443  53.2166 322.4860 0001610  77.6418 282.4755 15.08790940139329,6918.03,95.441,541.009,538.782,0.0
49443.0,STARLINK-3136,PAYLOAD,2024-05-12 05:23:24,15.08772277,0.0001811,53.2175,320.9994,80.8207,279.299,-0.0015729,-0.00025188,0.0,0 STARLINK-3136,1 49443U 21104AM  24133.22458596 -.00025188  00000-0 -15729-2 0  9998,2 49443  53.2175 320.9994 0001811  80.8207 279.2990 15.08772277139378,6918.087,95.442,541.205,538.7,0.0
49443.0,STARLINK-3136,PAYLOAD,2024-05-12 21:17:16,15.0881953,0.0001362,53.2164,318.0278,106.0116,254.1026,0.0016399,0.00025893,0.0,0 STARLINK-3136,1 49443U 21104AM  24133.88700150  .00025893  00000-0  16399-2 0  9991,2 49443  53.2164 318.0278 0001362 106.0116 254.1026 15.08819530139477,6917.943,95.439,540.75,538.866,0.0
49443.0,STARLINK-3136,PAYLOAD,2024-05-13 05:14:12,15.08844729,0.0001239,53.2166,316.5398,95.048,265.0653,0.00075417,0.00011737,0.0,0 STARLINK-3136,1 49443U 21104AM  24134.21820088  .00011737  00000-0  75417-3 0  9991,2 49443  53.2166 316.5398 0001239  95.0480 265.0653 15.08844729138451,6917.866,95.437,540.588,538.874,0.0
49443.0,STARLINK-3136,PAYLOAD,2024-05-13 21:08:03,15.08867371,0.0001215,53.2162,313.5662,93.2029,266.9102,0.00087773,0.00013719,0.0,0 STARLINK-3136,1 49443U 21104AM  24134.88059163  .00013719  00000-0  87773-3 0  9992,2 49443  53.2162 313.5662 0001215  93.2029 266.9102 15.08867371138559,6917.797,95.436,540.502,538.821,0.0
49443.0,STARLINK-3136,PAYLOAD,2024-05-14 05:04:58,15.08872527,0.0001248,53.216,312.0783,89.3718,270.7417,0.00075131,0.000117,0.0,0 STARLINK-3136,1 49443U 21104AM  24135.21178575  .00011700  00000-0  75131-3 0  9992,2 49443  53.2160 312.0783 0001248  89.3718 270.7417 15.08872527139677,6917.781,95.435,540.509,538.783,0.0
49443.0,STARLINK-3136,PAYLOAD,2024-05-14 17:48:02,15.08891707,0.0001241,53.2168,309.6994,86.2921,273.8213,0.00098141,0.00015388,0.0,0 STARLINK-3136,1 49443U 21104AM  24135.74169012  .00015388  00000-0  98141-3 0  9998,2 49443  53.2168 309.6994 0001241  86.2921 273.8213 15.08891707138685,6917.722,95.434,540.446,538.729,0.0
49443.0,STARLINK-3136,PAYLOAD,2024-05-15 11:17:16,15.08865526,0.0003182,53.21,306.4268,94.1632,265.9723,0.00053018,8.166e-05,0.0,0 STARLINK-3136,1 49443U 21104AM  24136.47032555  .00008166  00000-0  53018-3 0  9990,2 49443  53.2100 306.4268 0003182  94.1632 265.9723 15.08865526139862,6917.802,95.436,541.869,537.466,0.0
49443.0,STARLINK-3136,PAYLOAD,2024-05-15 20:49:34,15.08849933,0.0001666,53.2161,304.6423,114.7421,245.3744,0.00045974,7.038e-05,0.0,0 STARLINK-3136,1 49443U 21104AM  24136.86776556  .00007038  00000-0  45974-3 0  9998,2 49443  53.2161 304.6423 0001666 114.7421 245.3744 15.08849933139928,6917.85,95.437,540.868,538.563,0.0
49443.0,STARLINK-3136,PAYLOAD,2024-05-16 04:46:31,15.08838282,0.0001637,53.2169,303.1556,106.5387,253.5785,0.0007225,0.00011229,0.0,0 STARLINK-3136,1 49443U 21104AM  24137.19897290  .00011229  00000-0  72250-3 0  9998,2 49443  53.2169 303.1556 0001637 106.5387 253.5785 15.08838282139971,6917.886,95.438,540.883,538.618,0.0
49443.0,STARLINK-3136,PAYLOAD,2024-05-16 17:29:36,15.08867455,0.0001698,53.2174,300.7782,90.7675,269.3511,0.0021577,0.00034245,0.0,0 STARLINK-3136,1 49443U 21104AM  24137.72889105  .00034245  00000-0  21577-2 0  9991,2 49443  53.2174 300.7782 0001698  90.7675 269.3511 15.08867455140059,6917.796,95.436,540.836,538.487,0.0
49443.0,STARLINK-3136,PAYLOAD,2024-05-17 10:58:51,15.08849806,6e-05,53.2153,297.5055,15.184,344.917,0.0015351,0.00024234,0.0,0 STARLINK-3136,1 49443U 21104AM  24138.45753510  .00024234  00000-0  15351-2 0  9992,2 49443  53.2153 297.5055 0000600  15.1840 344.9170 15.08849806140162,6917.85,95.437,540.13,539.3,0.0
49443.0,STARLINK-3136,PAYLOAD,2024-05-17 18:55:46,15.08849245,0.0001765,53.2163,296.0193,80.3576,279.7616,0.00089052,0.00013917,0.0,0 STARLINK-3136,1 49443U 21104AM  24138.78873434  .00013917  00000-0  89052-3 0  9992,2 49443  53.2163 296.0193 0001765  80.3576 279.7616 15.08849245140216,6917.852,95.437,540.938,538.496,0.0
49443.0,STARLINK-3136,PAYLOAD,2024-05-18 10:49:37,15.08850379,0.0001668,53.2162,293.0451,93.8594,266.2589,0.0011741,0.00018452,0.0,0 STARLINK-3136,1 49443U 21104AM  24139.45113295  .00018452  00000-0  11741-2 0  9997,2 49443  53.2162 293.0451 0001668  93.8594 266.2589 15.08850379140311,6917.849,95.437,540.868,538.56,0.0
49443.0,STARLINK-3136,PAYLOAD,2024-05-18 14:00:23,15.08864002,0.0001887,53.2148,292.4499,106.7789,253.341,0.0015993,0.00025273,0.0,0 STARLINK-3136,1 49443U 21104AM  24139.58360988  .00025273  00000-0  15993-2 0  9996,2 49443  53.2148 292.4499 0001887 106.7789 253.3410 15.08864002139263,6917.807,95.436,540.977,538.367,0.0
